[{"OBJECT_NAME":"HST","OBJECT_ID":"1990-037B","EPOCH":"2026-03-03T10:01:15.222720","MEAN_MOTION":15.29363841,"ECCENTRICITY":0.00016951,"INCLINATION":28.4702,"RA_OF_ASC_NODE":82.7831,"ARG_OF_PERICENTER":63.3001,"MEAN_ANOMALY":296.7768,"EPHEMERIS_TYPE":0,"CLASSIFICATION_TYPE":"U","NORAD_CAT_ID":20580,"ELEMENT_SET_NO":999,"REV_AT_EPOCH":77235,"BSTAR":0.00029940291,"MEAN_MOTION_DOT":9.009e-5,"MEAN_MOTION_DDOT":0},{"OBJECT_NAME":"POLAR","OBJECT_ID":"1996-013A","EPOCH":"2026-03-02T17:54:40.016736","MEAN_MOTION":1.29845818,"ECCENTRICITY":0.6362278,"INCLINATION":79.7411,"RA_OF_ASC_NODE":228.2678,"ARG_OF_PERICENTER":212.6879,"MEAN_ANOMALY":83.6731,"EPHEMERIS_TYPE":0,"CLASSIFICATION_TYPE":"U","NORAD_CAT_ID":23802,"ELEMENT_SET_NO":999,"REV_AT_EPOCH":14347,"BSTAR":0,"MEAN_MOTION_DOT":1.78e-6,"MEAN_MOTION_DDOT":0},{"OBJECT_NAME":"SWAS","OBJECT_ID":"1998-071A","EPOCH":"2026-03-03T15:13:57.731808","MEAN_MOTION":15.0882257,"ECCENTRICITY":0.0003487,"INCLINATION":69.8969,"RA_OF_ASC_NODE":139.5634,"ARG_OF_PERICENTER":23.1006,"MEAN_ANOMALY":337.0314,"EPHEMERIS_TYPE":0,"CLASSIFICATION_TYPE":"U","NORAD_CAT_ID":25560,"ELEMENT_SET_NO":999,"REV_AT_EPOCH":48134,"BSTAR":0.00038879,"MEAN_MOTION_DOT":6.031e-5,"MEAN_MOTION_DDOT":0},{"OBJECT_NAME":"CXO","OBJECT_ID":"1999-040B","EPOCH":"2026-03-04T14:23:47.627520","MEAN_MOTION":0.37808937,"ECCENTRICITY":0.80032862,"INCLINATION":54.4843,"RA_OF_ASC_NODE":119.7682,"ARG_OF_PERICENTER":310.7757,"MEAN_ANOMALY":0.4217,"EPHEMERIS_TYPE":0,"CLASSIFICATION_TYPE":"U","NORAD_CAT_ID":25867,"ELEMENT_SET_NO":999,"REV_AT_EPOCH":1692,"BSTAR":0,"MEAN_MOTION_DOT":8.24e-6,"MEAN_MOTION_DDOT":0},{"OBJECT_NAME":"XMM-NEWTON","OBJECT_ID":"1999-066A","EPOCH":"2026-03-02T15:24:13.123584","MEAN_MOTION":0.50131664,"ECCENTRICITY":0.47125523,"INCLINATION":65.0189,"RA_OF_ASC_NODE":284.3763,"ARG_OF_PERICENTER":66.813,"MEAN_ANOMALY":359.9781,"EPHEMERIS_TYPE":0,"CLASSIFICATION_TYPE":"U","NORAD_CAT_ID":25989,"ELEMENT_SET_NO":999,"REV_AT_EPOCH":2247,"BSTAR":0,"MEAN_MOTION_DOT":6.2e-7,"MEAN_MOTION_DDOT":0},{"OBJECT_NAME":"TERRA","OBJECT_ID":"1999-068A","EPOCH":"2026-03-03T18:11:52.490688","MEAN_MOTION":14.61007359,"ECCENTRICITY":0.0002299,"INCLINATION":97.9606,"RA_OF_ASC_NODE":116.4193,"ARG_OF_PERICENTER":165.972,"MEAN_ANOMALY":262.2336,"EPHEMERIS_TYPE":0,"CLASSIFICATION_TYPE":"U","NORAD_CAT_ID":25994,"ELEMENT_SET_NO":999,"REV_AT_EPOCH":39421,"BSTAR":0.00012797,"MEAN_MOTION_DOT":5.83e-6,"MEAN_MOTION_DDOT":0},{"OBJECT_NAME":"CLUSTER II-FM7 (SAMBA)","OBJECT_ID":"2000-041A","EPOCH":"2026-03-04T06:04:28.507872","MEAN_MOTION":0.44785609,"ECCENTRICITY":0.89087774,"INCLINATION":148.992,"RA_OF_ASC_NODE":34.5676,"ARG_OF_PERICENTER":250.6745,"MEAN_ANOMALY":359.7226,"EPHEMERIS_TYPE":0,"CLASSIFICATION_TYPE":"U","NORAD_CAT_ID":26410,"ELEMENT_SET_NO":999,"REV_AT_EPOCH":1983,"BSTAR":0,"MEAN_MOTION_DOT":3.639e-5,"MEAN_MOTION_DDOT":0},{"OBJECT_NAME":"CLUSTER II-FM8 (TANGO)","OBJECT_ID":"2000-045B","EPOCH":"2026-02-18T01:30:32.809536","MEAN_MOTION":0.44405995,"ECCENTRICITY":0.88900451,"INCLINATION":149.0711,"RA_OF_ASC_NODE":33.5376,"ARG_OF_PERICENTER":249.457,"MEAN_ANOMALY":359.4916,"EPHEMERIS_TYPE":0,"CLASSIFICATION_TYPE":"U","NORAD_CAT_ID":26464,"ELEMENT_SET_NO":999,"REV_AT_EPOCH":1976,"BSTAR":0,"MEAN_MOTION_DOT":4.776e-5,"MEAN_MOTION_DDOT":0},{"OBJECT_NAME":"ODIN","OBJECT_ID":"2001-007A","EPOCH":"2026-03-03T15:02:08.225376","MEAN_MOTION":15.57969489,"ECCENTRICITY":0.0004083,"INCLINATION":97.408,"RA_OF_ASC_NODE":98.4251,"ARG_OF_PERICENTER":154.8687,"MEAN_ANOMALY":205.2768,"EPHEMERIS_TYPE":0,"CLASSIFICATION_TYPE":"U","NORAD_CAT_ID":26702,"ELEMENT_SET_NO":999,"REV_AT_EPOCH":37289,"BSTAR":0.000703,"MEAN_MOTION_DOT":0.00052767,"MEAN_MOTION_DDOT":0},{"OBJECT_NAME":"TIMED","OBJECT_ID":"2001-055B","EPOCH":"2026-03-03T11:44:57.285024","MEAN_MOTION":14.94999138,"ECCENTRICITY":0.00029602,"INCLINATION":74.066,"RA_OF_ASC_NODE":87.7998,"ARG_OF_PERICENTER":282.5183,"MEAN_ANOMALY":77.567,"EPHEMERIS_TYPE":0,"CLASSIFICATION_TYPE":"U","NORAD_CAT_ID":26998,"ELEMENT_SET_NO":999,"REV_AT_EPOCH":31502,"BSTAR":0.00015737976,"MEAN_MOTION_DOT":1.682e-5,"MEAN_MOTION_DDOT":0},{"OBJECT_NAME":"CORIOLIS","OBJECT_ID":"2003-001A","EPOCH":"2026-03-03T15:20:53.644128","MEAN_MOTION":14.19910037,"ECCENTRICITY":0.0014499,"INCLINATION":98.7161,"RA_OF_ASC_NODE":71.1242,"ARG_OF_PERICENTER":153.1511,"MEAN_ANOMALY":207.0418,"EPHEMERIS_TYPE":0,"CLASSIFICATION_TYPE":"U","NORAD_CAT_ID":27640,"ELEMENT_SET_NO":999,"REV_AT_EPOCH":19924,"BSTAR":0.00011238,"MEAN_MOTION_DOT":1.95e-6,"MEAN_MOTION_DDOT":0},{"OBJECT_NAME":"SORCE","OBJECT_ID":"2003-004A","EPOCH":"2026-03-03T15:40:11.238240","MEAN_MOTION":15.03042744,"ECCENTRICITY":0.0016677,"INCLINATION":39.9905,"RA_OF_ASC_NODE":143.5088,"ARG_OF_PERICENTER":9.7243,"MEAN_ANOMALY":350.3871,"EPHEMERIS_TYPE":0,"CLASSIFICATION_TYPE":"U","NORAD_CAT_ID":27651,"ELEMENT_SET_NO":999,"REV_AT_EPOCH":25601,"BSTAR":0.00035208,"MEAN_MOTION_DOT":4.692e-5,"MEAN_MOTION_DDOT":0},{"OBJECT_NAME":"MOST","OBJECT_ID":"2003-031D","EPOCH":"2026-03-03T14:46:05.193696","MEAN_MOTION":14.21297264,"ECCENTRICITY":0.0009598,"INCLINATION":98.7082,"RA_OF_ASC_NODE":71.8006,"ARG_OF_PERICENTER":191.1531,"MEAN_ANOMALY":168.9435,"EPHEMERIS_TYPE":0,"CLASSIFICATION_TYPE":"U","NORAD_CAT_ID":27843,"ELEMENT_SET_NO":999,"REV_AT_EPOCH":17571,"BSTAR":7.2299e-5,"MEAN_MOTION_DOT":1.14e-6,"MEAN_MOTION_DDOT":0},{"OBJECT_NAME":"SCISAT 1","OBJECT_ID":"2003-036A","EPOCH":"2026-03-03T19:22:35.327712","MEAN_MOTION":14.81297638,"ECCENTRICITY":0.0005883,"INCLINATION":73.9315,"RA_OF_ASC_NODE":20.6973,"ARG_OF_PERICENTER":114.7235,"MEAN_ANOMALY":245.4554,"EPHEMERIS_TYPE":0,"CLASSIFICATION_TYPE":"U","NORAD_CAT_ID":27858,"ELEMENT_SET_NO":999,"REV_AT_EPOCH":21584,"BSTAR":0.00016665,"MEAN_MOTION_DOT":1.265e-5,"MEAN_MOTION_DDOT":0},{"OBJECT_NAME":"SWIFT","OBJECT_ID":"2004-047A","EPOCH":"2026-03-03T18:52:23.503296","MEAN_MOTION":15.58696064,"ECCENTRICITY":0.000313,"INCLINATION":20.5532,"RA_OF_ASC_NODE":272.1083,"ARG_OF_PERICENTER":317.0945,"MEAN_ANOMALY":42.9255,"EPHEMERIS_TYPE":0,"CLASSIFICATION_TYPE":"U","NORAD_CAT_ID":28485,"ELEMENT_SET_NO":999,"REV_AT_EPOCH":17034,"BSTAR":0.000643,"MEAN_MOTION_DOT":0.00052726,"MEAN_MOTION_DDOT":0},{"OBJECT_NAME":"HINODE (SOLAR-B)","OBJECT_ID":"2006-041A","EPOCH":"2026-03-03T15:26:35.693952","MEAN_MOTION":14.68462453,"ECCENTRICITY":0.001614,"INCLINATION":98.0628,"RA_OF_ASC_NODE":80.3262,"ARG_OF_PERICENTER":262.3103,"MEAN_ANOMALY":97.6269,"EPHEMERIS_TYPE":0,"CLASSIFICATION_TYPE":"U","NORAD_CAT_ID":29479,"ELEMENT_SET_NO":999,"REV_AT_EPOCH":3938,"BSTAR":0.0001691,"MEAN_MOTION_DOT":9.32e-6,"MEAN_MOTION_DDOT":0},{"OBJECT_NAME":"SHIJIAN-6 02A (SJ-6 02A)","OBJECT_ID":"2006-046A","EPOCH":"2026-03-03T20:03:17.664768","MEAN_MOTION":15.15592369,"ECCENTRICITY":0.0004377,"INCLINATION":97.651,"RA_OF_ASC_NODE":103.1349,"ARG_OF_PERICENTER":127.2553,"MEAN_ANOMALY":232.9078,"EPHEMERIS_TYPE":0,"CLASSIFICATION_TYPE":"U","NORAD_CAT_ID":29505,"ELEMENT_SET_NO":999,"REV_AT_EPOCH":5630,"BSTAR":0.00033425,"MEAN_MOTION_DOT":6.28e-5,"MEAN_MOTION_DDOT":0}]
